[{"OBJECT_NAME":"STARLINK-11242 [DTC]","OBJECT_ID":"2024-154A","EPOCH":"2026-03-09T09:47:30.107040","MEAN_MOTION":15.69705307,"ECCENTRICITY":0.00019556,"INCLINATION":53.1597,"RA_OF_ASC_NODE":132.3998,"ARG_OF_PERICENTER":28.7329,"MEAN_ANOMALY":331.3797,"EPHEMERIS_TYPE":0,"CLASSIFICATION_TYPE":"U","NORAD_CAT_ID":60903,"ELEMENT_SET_NO":999,"REV_AT_EPOCH":8847,"BSTAR":-4.821964e-6,"MEAN_MOTION_DOT":-1.174e-5,"MEAN_MOTION_DDOT":0},{"OBJECT_NAME":"DANDE","OBJECT_ID":"2013-055C","EPOCH":"2026-03-09T22:31:17.292576","MEAN_MOTION":14.76534852,"ECCENTRICITY":0.04736914,"INCLINATION":80.988,"RA_OF_ASC_NODE":283.8166,"ARG_OF_PERICENTER":234.3414,"MEAN_ANOMALY":121.2825,"EPHEMERIS_TYPE":0,"CLASSIFICATION_TYPE":"U","NORAD_CAT_ID":39267,"ELEMENT_SET_NO":999,"REV_AT_EPOCH":64554,"BSTAR":0.00031071998,"MEAN_MOTION_DOT":0.00015936,"MEAN_MOTION_DDOT":0}]
